NORAD_CAT_ID,OBJECT_NAME,OBJECT_TYPE,EPOCH,MEAN_MOTION,ECCENTRICITY,INCLINATION,RA_OF_ASC_NODE,ARG_OF_PERICENTER,MEAN_ANOMALY,BSTAR,MEAN_MOTION_DOT,MEAN_MOTION_DDOT,TLE_LINE0,TLE_LINE1,TLE_LINE2,SEMIMAJOR_AXIS,PERIOD,APOGEE,PERIGEE,DECAYED
53908.0,STARLINK-5057,PAYLOAD,2024-01-25 17:54:08,15.0883747,0.0001276,53.2156,188.6307,97.7857,262.328,3.6237e-05,2.89e-06,0.0,0 STARLINK-5057,1 53908U 22119Y   24025.74592695  .00000289  00000-0  36237-4 0  9994,2 53908  53.2156 188.6307 0001276  97.7857 262.3280 15.08837470 74569,6917.888,95.438,540.636,538.87,0.0
53908.0,STARLINK-5057,PAYLOAD,2024-01-26 14:34:08,15.08838633,0.0001186,53.2154,184.7658,94.7419,265.3709,9.68e-05,1.253e-05,0.0,0 STARLINK-5057,1 53908U 22119Y   24026.60704788  .00001253  00000-0  96800-4 0  9992,2 53908  53.2154 184.7658 0001186  94.7419 265.3709 15.08838633 75117,6917.885,95.438,540.57,538.929,0.0
53908.0,STARLINK-5057,PAYLOAD,2024-01-26 19:20:18,15.08840808,0.0001402,53.2159,183.8722,105.2848,254.8299,0.00025819,3.824e-05,0.0,0 STARLINK-5057,1 53908U 22119Y   24026.80576534  .00003824  00000-0  25819-3 0  9997,2 53908  53.2159 183.8722 0001402 105.2848 254.8299 15.08840808 74729,6917.878,95.438,540.713,538.773,0.0
53908.0,STARLINK-5057,PAYLOAD,2024-01-27 14:24:55,15.08838095,0.0001316,53.2156,180.301,95.6874,264.4268,6.7773e-05,7.91e-06,0.0,0 STARLINK-5057,1 53908U 22119Y   24027.60064803  .00000791  00000-0  67773-4 0  9993,2 53908  53.2156 180.3010 0001316  95.6874 264.4268 15.08838095 75261,6917.886,95.438,540.662,538.841,0.0
53908.0,STARLINK-5057,PAYLOAD,2024-01-27 19:11:05,15.08843998,0.0001459,53.2166,179.4095,84.073,276.0428,0.000127,1.734e-05,0.0,0 STARLINK-5057,1 53908U 22119Y   24027.79936621  .00001734  00000-0  12700-3 0  9996,2 53908  53.2166 179.4095 0001459  84.0730 276.0428 15.08843998 74876,6917.868,95.437,540.742,538.724,0.0
53908.0,STARLINK-5057,PAYLOAD,2024-01-28 09:29:34,15.08838413,0.0001538,53.2178,176.7389,85.28,274.8368,3.2246e-05,2.25e-06,0.0,0 STARLINK-5057,1 53908U 22119Y   24028.39553495  .00000225  00000-0  32246-4 0  9999,2 53908  53.2178 176.7389 0001538  85.2800 274.8368 15.08838413 74969,6917.885,95.438,540.814,538.686,0.0
53908.0,STARLINK-5057,PAYLOAD,2024-01-28 14:15:43,15.08842233,0.0001508,53.218,175.8445,95.0178,265.0986,5.2634e-05,5.5e-06,0.0,0 STARLINK-5057,1 53908U 22119Y   24028.59425165  .00000550  00000-0  52634-4 0  9997,2 53908  53.2180 175.8445 0001508  95.0178 265.0986 15.08842233 75413,6917.874,95.437,540.782,538.695,0.0
53908.0,STARLINK-5057,PAYLOAD,2024-01-28 17:26:29,15.08840847,0.0001452,53.2174,175.2521,83.8926,276.2231,4.2462e-05,3.88e-06,0.0,0 STARLINK-5057,1 53908U 22119Y   24028.72673301  .00000388  00000-0  42462-4 0  9996,2 53908  53.2174 175.2521 0001452  83.8926 276.2231 15.08840847 75437,6917.878,95.438,540.747,538.738,0.0
53908.0,STARLINK-5057,PAYLOAD,2024-01-29 09:20:20,15.08845575,0.00013,53.2167,172.2776,84.8007,275.3133,6.9032e-05,8.11e-06,0.0,0 STARLINK-5057,1 53908U 22119Y   24029.38912984  .00000811  00000-0  69032-4 0  9995,2 53908  53.2167 172.2776 0001300  84.8007 275.3133 15.08845575 75110,6917.863,95.437,540.628,538.829,0.0
53908.0,STARLINK-5057,PAYLOAD,2024-01-30 12:21:54,15.08842913,0.0001265,53.2166,167.2212,81.4065,278.7071,9.0126e-05,1.147e-05,0.0,0 STARLINK-5057,1 53908U 22119Y   24030.51521060  .00001147  00000-0  90126-4 0  9994,2 53908  53.2166 167.2212 0001265  81.4065 278.7071 15.08842913 75284,6917.871,95.437,540.612,538.861,0.0
53908.0,STARLINK-5057,PAYLOAD,2024-01-30 13:57:17,15.08841857,0.0001203,53.2161,166.9235,85.7112,274.4017,7.7339e-05,9.43e-06,0.0,0 STARLINK-5057,1 53908U 22119Y   24030.58145109  .00000943  00000-0  77339-4 0  9991,2 53908  53.2161 166.9235 0001203  85.7112 274.4017 15.08841857 75719,6917.875,95.437,540.572,538.907,0.0
53908.0,STARLINK-5057,PAYLOAD,2024-01-30 15:32:40,15.0884246,0.0001238,53.2159,166.6259,83.7954,276.3179,8.0805e-05,9.98e-06,0.0,0 STARLINK-5057,1 53908U 22119Y   24030.64769055  .00000998  00000-0  80805-4 0  9992,2 53908  53.2159 166.6259 0001238  83.7954 276.3179 15.08842460 75721,6917.873,95.437,540.594,538.881,0.0
53908.0,STARLINK-5057,PAYLOAD,2024-01-31 12:12:41,15.08838375,0.0001405,53.2165,162.7601,104.1685,255.9463,3.2433e-05,2.28e-06,0.0,0 STARLINK-5057,1 53908U 22119Y   24031.50881375  .00000228  00000-0  32433-4 0  9998,2 53908  53.2165 162.7601 0001405 104.1685 255.9463 15.08838375 75438,6917.885,95.438,540.722,538.778,0.0
53908.0,STARLINK-5057,PAYLOAD,2024-01-31 18:34:13,15.08840573,0.0001412,53.2162,161.5697,103.3567,256.7583,4.4793e-05,4.25e-06,0.0,0 STARLINK-5057,1 53908U 22119Y   24031.77377193  .00000425  00000-0  44793-4 0  9996,2 53908  53.2162 161.5697 0001412 103.3567 256.7583 15.08840573 75890,6917.879,95.438,540.72,538.767,0.0
53908.0,STARLINK-5057,PAYLOAD,2024-02-01 12:03:29,15.08829298,0.0001412,53.2163,158.3005,95.0096,265.1057,-7.942e-06,-4.14e-06,0.0,0 STARLINK-5057,1 53908U 22119Y   24032.50242154 -.00000414  00000-0 -79420-5 0  9992,2 53908  53.2163 158.3005 0001412  95.0096 265.1057 15.08829298 75589,6917.913,95.438,540.755,538.801,0.0
53908.0,STARLINK-5057,PAYLOAD,2024-02-01 13:38:52,15.0882423,0.0001393,53.2155,158.0032,89.4203,270.6949,-4.275e-05,-9.68e-06,0.0,0 STARLINK-5057,1 53908U 22119Y   24032.56866648 -.00000968  00000-0 -42750-4 0  9997,2 53908  53.2155 158.0032 0001393  89.4203 270.6949 15.08824230 76013,6917.929,95.439,540.757,538.83,0.0
53908.0,STARLINK-5057,PAYLOAD,2024-02-01 20:00:25,15.08829523,0.0001397,53.2156,156.8134,90.2544,269.8608,-5.0875e-06,-3.69e-06,0.0,0 STARLINK-5057,1 53908U 22119Y   24032.83362389 -.00000369  00000-0 -50875-5 0  9993,2 53908  53.2156 156.8134 0001397  90.2544 269.8608 15.08829523 76051,6917.912,95.438,540.744,538.811,0.0
53908.0,STARLINK-5057,PAYLOAD,2024-02-02 03:57:20,15.08836713,0.0001404,53.2157,155.3266,92.5674,267.5479,5.3776e-05,5.68e-06,0.0,0 STARLINK-5057,1 53908U 22119Y   24033.16481923  .00000568  00000-0  53776-4 0  9997,2 53908  53.2157 155.3266 0001404  92.5674 267.5479 15.08836713 75688,6917.89,95.438,540.727,538.784,0.0
53908.0,STARLINK-5057,PAYLOAD,2024-02-02 11:54:15,15.08846374,0.000142,53.2157,153.8398,92.4206,267.6948,0.00014676,2.049e-05,0.0,0 STARLINK-5057,1 53908U 22119Y   24033.49601196  .00002049  00000-0  14676-3 0  9990,2 53908  53.2157 153.8398 0001420  92.4206 267.6948 15.08846374 75737,6917.861,95.437,540.708,538.744,0.0
53908.0,STARLINK-5057,PAYLOAD,2024-02-02 13:29:38,15.08849144,0.0001418,53.2158,153.5425,91.7753,268.3401,0.00017613,2.517e-05,0.0,0 STARLINK-5057,1 53908U 22119Y   24033.56225005  .00002517  00000-0  17613-3 0  9993,2 53908  53.2158 153.5425 0001418  91.7753 268.3401 15.08849144 76160,6917.852,95.437,540.698,538.736,0.0
53908.0,STARLINK-5057,PAYLOAD,2024-02-02 19:51:10,15.08859781,0.0001448,53.2148,152.353,90.0392,270.0766,0.00038872,5.907e-05,0.0,0 STARLINK-5057,1 53908U 22119Y   24033.82720711  .00005907  00000-0  38872-3 0  9992,2 53908  53.2148 152.3530 0001448  90.0392 270.0766 15.08859781 76204,6917.82,95.436,540.687,538.683,0.0
53908.0,STARLINK-5057,PAYLOAD,2024-02-03 03:48:07,15.08830804,0.0001496,53.215,150.8666,91.7548,268.3615,-2.3605e-05,-6.64e-06,0.0,0 STARLINK-5057,1 53908U 22119Y   24034.15842192 -.00000664  00000-0 -23605-4 0  9993,2 53908  53.2150 150.8666 0001496  91.7548 268.3615 15.08830804 75830,6917.908,95.438,540.808,538.739,0.0
53908.0,STARLINK-5057,PAYLOAD,2024-02-03 13:20:25,15.08847553,0.0001426,53.2145,149.0823,91.0591,269.0565,0.0002595,3.845e-05,0.0,0 STARLINK-5057,1 53908U 22119Y   24034.55585566  .00003845  00000-0  25950-3 0  9992,2 53908  53.2145 149.0823 0001426  91.0591 269.0565 15.08847553 76318,6917.857,95.437,540.709,538.736,0.0
53908.0,STARLINK-5057,PAYLOAD,2024-02-03 18:06:35,15.08855777,0.0001429,53.2142,148.1901,91.6242,268.4913,0.00075851,0.00011809,0.0,0 STARLINK-5057,1 53908U 22119Y   24034.75457336  .00011809  00000-0  75851-3 0  9991,2 53908  53.2142 148.1901 0001429  91.6242 268.4913 15.08855777 75927,6917.832,95.437,540.686,538.709,0.0
53908.0,STARLINK-5057,PAYLOAD,2024-02-03 19:41:58,15.08859366,0.0001429,53.2142,147.8927,91.0284,269.0871,0.00094626,0.00014812,0.0,0 STARLINK-5057,1 53908U 22119Y   24034.82081280  .00014812  00000-0  94626-3 0  9998,2 53908  53.2142 147.8927 0001429  91.0284 269.0871 15.08859366 76357,6917.821,95.436,540.675,538.698,0.0
53908.0,STARLINK-5057,PAYLOAD,2024-02-04 03:38:54,15.08839502,0.0001367,53.2141,146.4058,97.9041,262.2107,0.00066001,0.00010232,0.0,0 STARLINK-5057,1 53908U 22119Y   24035.15201664  .00010232  00000-0  66001-3 0  9993,2 53908  53.2141 146.4058 0001367  97.9041 262.2107 15.08839502 75988,6917.882,95.438,540.693,538.801,0.0
53908.0,STARLINK-5057,PAYLOAD,2024-02-04 14:46:35,15.0885859,0.0001344,53.2141,144.3247,84.3911,275.7234,0.0010742,0.00016858,0.0,0 STARLINK-5057,1 53908U 22119Y   24035.61569435  .00016858  00000-0  10742-2 0  9997,2 53908  53.2141 144.3247 0001344  84.3911 275.7234 15.08858590 76479,6917.824,95.436,540.618,538.759,0.0
53908.0,STARLINK-5057,PAYLOAD,2024-02-04 19:32:45,15.088623,0.0001377,53.214,143.4323,88.2445,271.8705,0.00098898,0.00015496,0.0,0 STARLINK-5057,1 53908U 22119Y   24035.81441149  .00015496  00000-0  98898-3 0  9996,2 53908  53.2140 143.4323 0001377  88.2445 271.8705 15.08862300 76502,6917.812,95.436,540.63,538.725,0.0
53908.0,STARLINK-5057,PAYLOAD,2024-02-05 03:29:41,15.0883697,0.0001372,53.2138,141.9454,89.8157,270.2993,0.0001202,1.625e-05,0.0,0 STARLINK-5057,1 53908U 22119Y   24036.14561710  .00001625  00000-0  12020-3 0  9992,2 53908  53.2138 141.9454 0001372  89.8157 270.2993 15.08836970 76134,6917.89,95.438,540.704,538.806,0.0
53908.0,STARLINK-5057,PAYLOAD,2024-02-05 13:02:00,15.08851226,0.0001336,53.2141,140.1616,88.1932,271.9213,0.00075427,0.0001174,0.0,0 STARLINK-5057,1 53908U 22119Y   24036.54305557  .00011740  00000-0  75427-3 0  9990,2 53908  53.2141 140.1616 0001336  88.1932 271.9213 15.08851226 76619,6917.846,95.437,540.635,538.787,0.0
